{"type": "FeatureCollection", "features": [ {"type": "Feature", "properties": {"norad_id": 42741, "name": "EUTELSAT 172B", "group": "eutelsat", "lat": -0.012565874727698451, "lon": -106.2253180013365, "alt_km": 35786.79835510717, "timestamp": "2025-12-18T23:35:48.718909+00:00", "meta": {"OBJECT_NAME": "EUTELSAT 172B", "OBJECT_ID": "2017-029B", "EPOCH": "2025-12-18T13:36:29.130048", "MEAN_MOTION": 1.00272378, "ECCENTRICITY": 2.149e-05, "INCLINATION": 0.0468, "RA_OF_ASC_NODE": 144.8867, "ARG_OF_PERICENTER": 297.3618, "MEAN_ANOMALY": 21.2942, "EPHEMERIS_TYPE": 0, "CLASSIFICATION_TYPE": "U", "NORAD_CAT_ID": 42741, "ELEMENT_SET_NO": 999, "REV_AT_EPOCH": 3192, "BSTAR": 0, "MEAN_MOTION_DOT": 2e-07, "MEAN_MOTION_DDOT": 0}, "tle": {"line1": "1 42741U 17029B   25352.56700382  .00000020  00000+0  00000+0 0  9995", "line2": "2 42741   0.0468 144.8867 0000214 297.3618  21.2942  1.00272378 31924"}}, "geometry": {"type": "Point", "coordinates": [-106.2253180013365, -0.012565874727698451]}}, {"type": "Feature", "properties": {"norad_id": 44334, "name": "EUTELSAT 7C", "group": "eutelsat", "lat": -0.044568928331838516, "lon": 88.7552042977605, "alt_km": 35798.430362434105, "timestamp": "2025-12-18T23:35:48.718921+00:00", "meta": {"OBJECT_NAME": "EUTELSAT 7C", "OBJECT_ID": "2019-034B", "EPOCH": "2025-12-18T15:02:24.148896", "MEAN_MOTION": 1.00271261, "ECCENTRICITY": 0.00030271, "INCLINATION": 0.073, "RA_OF_ASC_NODE": 178.0783, "ARG_OF_PERICENTER": 72.8613, "MEAN_ANOMALY": 69.1342, "EPHEMERIS_TYPE": 0, "CLASSIFICATION_TYPE": "U", "NORAD_CAT_ID": 44334, "ELEMENT_SET_NO": 999, "REV_AT_EPOCH": 502, "BSTAR": 0, "MEAN_MOTION_DOT": 7.3e-07, "MEAN_MOTION_DDOT": 0}, "tle": {"line1": "1 44334U 19034B   25352.62666839  .00000073  00000+0  00000+0 0  9996", "line2": "2 44334   0.0730 178.0783 0003027  72.8613  69.1342  1.00271261  5025"}}, "geometry": {"type": "Point", "coordinates": [88.7552042977605, -0.044568928331838516]}}, {"type": "Feature", "properties": {"norad_id": 44624, "name": "EUTELSAT 5 WEST B", "group": "eutelsat", "lat": 0.0930344729611489, "lon": 76.79444569774525, "alt_km": 35798.714821920374, "timestamp": "2025-12-18T23:35:48.718933+00:00", "meta": {"OBJECT_NAME": "EUTELSAT 5 WEST B", "OBJECT_ID": "2019-067A", "EPOCH": "2025-12-18T08:08:02.579136", "MEAN_MOTION": 1.00271263, "ECCENTRICITY": 0.00030044, "INCLINATION": 0.0696, "RA_OF_ASC_NODE": 331.0645, "ARG_OF_PERICENTER": 296.4437, "MEAN_ANOMALY": 296.7151, "EPHEMERIS_TYPE": 0, "CLASSIFICATION_TYPE": "U", "NORAD_CAT_ID": 44624, "ELEMENT_SET_NO": 999, "REV_AT_EPOCH": 2262, "BSTAR": 0, "MEAN_MOTION_DOT": -1.7e-07, "MEAN_MOTION_DDOT": 0}, "tle": {"line1": "1 44624U 19067A   25352.33891874 -.00000017  00000+0  00000+0 0  9990", "line2": "2 44624   0.0696 331.0645 0003004 296.4437 296.7151  1.00271263 22622"}}, "geometry": {"type": "Point", "coordinates": [76.79444569774525, 0.0930344729611489]}}, {"type": "Feature", "properties": {"norad_id": 45027, "name": "EUTELSAT KONNECT", "group": "eutelsat", "lat": 0.020307303054590258, "lon": 88.98536829378281, "alt_km": 35791.31531437682, "timestamp": "2025-12-18T23:35:48.718945+00:00", "meta": {"OBJECT_NAME": "EUTELSAT KONNECT", "OBJECT_ID": "2020-005B", "EPOCH": "2025-12-18T13:19:48.974880", "MEAN_MOTION": 1.00271787, "ECCENTRICITY": 0.00013003, "INCLINATION": 0.0729, "RA_OF_ASC_NODE": 95.4985, "ARG_OF_PERICENTER": 190.5177, "MEAN_ANOMALY": 8.5553, "EPHEMERIS_TYPE": 0, "CLASSIFICATION_TYPE": "U", "NORAD_CAT_ID": 45027, "ELEMENT_SET_NO": 999, "REV_AT_EPOCH": 2252, "BSTAR": 0, "MEAN_MOTION_DOT": 7.5e-07, "MEAN_MOTION_DDOT": 0}, "tle": {"line1": "1 45027U 20005B   25352.55542795  .00000075  00000+0  00000+0 0  9994", "line2": "2 45027   0.0729  95.4985 0001300 190.5177   8.5553  1.00271787 22522"}}, "geometry": {"type": "Point", "coordinates": [88.98536829378281, 0.020307303054590258]}}, {"type": "Feature", "properties": {"norad_id": 49056, "name": "EUTELSAT QUANTUM", "group": "eutelsat", "lat": 0.03325337242594021, "lon": 129.46460424932317, "alt_km": 35798.24002200428, "timestamp": "2025-12-18T23:35:48.718956+00:00", "meta": {"OBJECT_NAME": "EUTELSAT QUANTUM", "OBJECT_ID": "2021-069B", "EPOCH": "2025-12-18T13:31:17.874912", "MEAN_MOTION": 1.00271306, "ECCENTRICITY": 0.00033295, "INCLINATION": 0.0155, "RA_OF_ASC_NODE": 20.1385, "ARG_OF_PERICENTER": 258.3771, "MEAN_ANOMALY": 59.4383, "EPHEMERIS_TYPE": 0, "CLASSIFICATION_TYPE": "U", "NORAD_CAT_ID": 49056, "ELEMENT_SET_NO": 999, "REV_AT_EPOCH": 1611, "BSTAR": 0, "MEAN_MOTION_DOT": 1.51e-06, "MEAN_MOTION_DDOT": 0}, "tle": {"line1": "1 49056U 21069B   25352.56340133  .00000151  00000+0  00000+0 0  9999", "line2": "2 49056   0.0155  20.1385 0003329 258.3771  59.4383  1.00271306 16117"}}, "geometry": {"type": "Point", "coordinates": [129.46460424932317, 0.03325337242594021]}}, {"type": "Feature", "properties": {"norad_id": 53765, "name": "EUTELSAT KONNECT VHTS", "group": "eutelsat", "lat": 0.012853814248897309, "lon": 84.50653068746567, "alt_km": 35795.7372990983, "timestamp": "2025-12-18T23:35:48.718982+00:00", "meta": {"OBJECT_NAME": "EUTELSAT KONNECT VHTS", "OBJECT_ID": "2022-110A", "EPOCH": "2025-12-18T13:18:19.118880", "MEAN_MOTION": 1.00269636, "ECCENTRICITY": 0.00022976, "INCLINATION": 0.0639, "RA_OF_ASC_NODE": 100.9072, "ARG_OF_PERICENTER": 142.3549, "MEAN_ANOMALY": 46.4723, "EPHEMERIS_TYPE": 0, "CLASSIFICATION_TYPE": "U", "NORAD_CAT_ID": 53765, "ELEMENT_SET_NO": 999, "REV_AT_EPOCH": 501, "BSTAR": 0, "MEAN_MOTION_DOT": 4.2e-07, "MEAN_MOTION_DDOT": 0}, "tle": {"line1": "1 53765U 22110A   25352.55438795  .00000042  00000+0  00000+0 0  9999", "line2": "2 53765   0.0639 100.9072 0002297 142.3549  46.4723  1.00269636  5018"}}, "geometry": {"type": "Point", "coordinates": [84.50653068746567, 0.012853814248897309]}}, {"type": "Feature", "properties": {"norad_id": 54048, "name": "EUTELSAT HOTBIRD 13F", "group": "eutelsat", "lat": 0.03650706734371633, "lon": 94.79732903588763, "alt_km": 35786.067306989644, "timestamp": "2025-12-18T23:35:48.718995+00:00", "meta": {"OBJECT_NAME": "EUTELSAT HOTBIRD 13F", "OBJECT_ID": "2022-134A", "EPOCH": "2025-12-18T08:13:17.076864", "MEAN_MOTION": 1.00271529, "ECCENTRICITY": 0.00022321, "INCLINATION": 0.052, "RA_OF_ASC_NODE": 292.8165, "ARG_OF_PERICENTER": 71.9621, "MEAN_ANOMALY": 218.7416, "EPHEMERIS_TYPE": 0, "CLASSIFICATION_TYPE": "U", "NORAD_CAT_ID": 54048, "ELEMENT_SET_NO": 999, "REV_AT_EPOCH": 1156, "BSTAR": 0, "MEAN_MOTION_DOT": 1.12e-06, "MEAN_MOTION_DDOT": 0}, "tle": {"line1": "1 54048U 22134A   25352.34255876  .00000112  00000+0  00000+0 0  9992", "line2": "2 54048   0.0520 292.8165 0002232  71.9621 218.7416  1.00271529 11567"}}, "geometry": {"type": "Point", "coordinates": [94.79732903588763, 0.03650706734371633]}}, {"type": "Feature", "properties": {"norad_id": 54225, "name": "EUTELSAT HOTBIRD 13G", "group": "eutelsat", "lat": 0.0006955631326280758, "lon": 94.7472721050351, "alt_km": 35784.61227747294, "timestamp": "2025-12-18T23:35:48.719008+00:00", "meta": {"OBJECT_NAME": "EUTELSAT HOTBIRD 13G", "OBJECT_ID": "2022-146A", "EPOCH": "2025-12-18T08:13:17.076864", "MEAN_MOTION": 1.00271376, "ECCENTRICITY": 0.00019173, "INCLINATION": 0.0519, "RA_OF_ASC_NODE": 233.0984, "ARG_OF_PERICENTER": 300.7075, "MEAN_ANOMALY": 49.7114, "EPHEMERIS_TYPE": 0, "CLASSIFICATION_TYPE": "U", "NORAD_CAT_ID": 54225, "ELEMENT_SET_NO": 999, "REV_AT_EPOCH": 565, "BSTAR": 0, "MEAN_MOTION_DOT": 1.12e-06, "MEAN_MOTION_DDOT": 0}, "tle": {"line1": "1 54225U 22146A   25352.34255876  .00000112  00000+0  00000+0 0  9992", "line2": "2 54225   0.0519 233.0984 0001917 300.7075  49.7114  1.00271376  5653"}}, "geometry": {"type": "Point", "coordinates": [94.7472721050351, 0.0006955631326280758]}}, {"type": "Feature", "properties": {"norad_id": 54259, "name": "EUTELSAT 10B", "group": "eutelsat", "lat": 0.021597805328716625, "lon": 91.76671312850573, "alt_km": 35782.90586507785, "timestamp": "2025-12-18T23:35:48.719020+00:00", "meta": {"OBJECT_NAME": "EUTELSAT 10B", "OBJECT_ID": "2022-157A", "EPOCH": "2025-12-18T13:20:33.903744", "MEAN_MOTION": 1.00272196, "ECCENTRICITY": 7.484e-05, "INCLINATION": 0.0618, "RA_OF_ASC_NODE": 98.3374, "ARG_OF_PERICENTER": 10.8156, "MEAN_ANOMALY": 188.3938, "EPHEMERIS_TYPE": 0, "CLASSIFICATION_TYPE": "U", "NORAD_CAT_ID": 54259, "ELEMENT_SET_NO": 999, "REV_AT_EPOCH": 1121, "BSTAR": 0, "MEAN_MOTION_DOT": 9.3e-07, "MEAN_MOTION_DDOT": 0}, "tle": {"line1": "1 54259U 22157A   25352.55594796  .00000093  00000+0  00000+0 0  9999", "line2": "2 54259   0.0618  98.3374 0000748  10.8156 188.3938  1.00272196 11219"}}, "geometry": {"type": "Point", "coordinates": [91.76671312850573, 0.021597805328716625]}}, {"type": "Feature", "properties": {"norad_id": 59346, "name": "EUTELSAT 36D", "group": "eutelsat", "lat": 0.04659514506849811, "lon": 117.62037794680077, "alt_km": 35786.98287896377, "timestamp": "2025-12-18T23:35:48.719032+00:00", "meta": {"OBJECT_NAME": "EUTELSAT 36D", "OBJECT_ID": "2024-059A", "EPOCH": "2025-12-17T22:03:22.894272", "MEAN_MOTION": 1.00271901, "ECCENTRICITY": 6.421e-05, "INCLINATION": 0.025, "RA_OF_ASC_NODE": 12.6237, "ARG_OF_PERICENTER": 351.154, "MEAN_ANOMALY": 89.689, "EPHEMERIS_TYPE": 0, "CLASSIFICATION_TYPE": "U", "NORAD_CAT_ID": 59346, "ELEMENT_SET_NO": 999, "REV_AT_EPOCH": 633, "BSTAR": 0, "MEAN_MOTION_DOT": 0, "MEAN_MOTION_DDOT": 0}, "tle": {"line1": "1 59346U 24059A   25351.91901498  .00000000  00000+0  00000+0 0  9992", "line2": "2 59346   0.0250  12.6237 0000642 351.1540  89.6890  1.00271901  6331"}}, "geometry": {"type": "Point", "coordinates": [117.62037794680077, 0.04659514506849811]}}]}